0 BLOCK DM-SL R/B
1 27953U 03044B   13281.76483503 -.00000159  00000-0  00000+0 0  6473
2 27953 000.8662 341.3129 6583780 222.6806 233.3184 02.14423050 78523
0 BLOCK DM-SL R/B
1 27953U 03044B   13284.11994575 -.00000201  00000-0  00000+0 0  6480
2 27953 000.8681 341.0849 6583989 223.4998 251.2560 02.14423243 78578
0 BLOCK DM-SL R/B
1 27953U 03044B   13286.75336382 -.00000256  00000-0  00000+0 0  6499
2 27953 000.8705 340.8362 6584227 224.4093 124.0272 02.14423351 78628
0 BLOCK DM-SL R/B
1 27953U 03044B   13288.84779572 -.00000261  00000-0  00000+0 0  6501
2 27953 000.8721 340.6138 6584373 225.1568 300.7445 02.14423560 78674
0 BLOCK DM-SL R/B
1 27953U 03044B   13290.68158929 -.00000233  00000-0  00000+0 0  6513
2 27953 000.8737 340.4279 6584474 225.8029 276.2719 02.14423826 78717
0 BLOCK DM-SL R/B
1 27953U 03044B   13293.49663208 -.00000187  00000-0  00000+0 0  6525
2 27953 000.8760 340.1387 6584554 226.7973 289.2491 02.14423766 78777
0 BLOCK DM-SL R/B
1 27953U 03044B   13295.62425800 -.00000187  00000-0  00000+0 0  6537
2 27953 000.8777 339.9394 6584611 227.5300 131.6020 02.14423653 78814
